ONEWEB-0706             
1 61611U 24188T   25284.89761754  .00000599  00000+0  16786-2 0  9998
2 61611  87.8750  85.7715 0002309  93.2480 266.8912 13.10374663 50862
ONEWEB-0707             
1 61612U 24188U   25284.90425728  .00000656  00000+0  18440-2 0  9992
2 61612  87.8762  85.7392 0002269  96.0466 264.0920 13.10374056 50806
ONEWEB-0708             
1 61613U 24188V   25284.84614968 -.00000139  00000+0 -43394-3 0  9997
2 61613  87.8758  85.7929 0002353  85.6423 274.4973 13.10368815 50774
